[{"OBJECT_NAME":"STARLINK-32252","OBJECT_ID":"2024-144T","EPOCH":"2026-03-09T16:34:24.980160","MEAN_MOTION":15.30191369,"ECCENTRICITY":9.932e-5,"INCLINATION":53.1604,"RA_OF_ASC_NODE":216.8161,"ARG_OF_PERICENTER":72.4612,"MEAN_ANOMALY":287.6497,"EPHEMERIS_TYPE":0,"CLASSIFICATION_TYPE":"U","NORAD_CAT_ID":60442,"ELEMENT_SET_NO":999,"REV_AT_EPOCH":8935,"BSTAR":3.9087063e-5,"MEAN_MOTION_DOT":7.99e-6,"MEAN_MOTION_DDOT":0},{"OBJECT_NAME":"TOMORROW-S2","OBJECT_ID":"2024-149T","EPOCH":"2026-03-09T18:02:42.746496","MEAN_MOTION":15.30674935,"ECCENTRICITY":0.0001648,"INCLINATION":97.3857,"RA_OF_ASC_NODE":150.0385,"ARG_OF_PERICENTER":234.3331,"MEAN_ANOMALY":125.7757,"EPHEMERIS_TYPE":0,"CLASSIFICATION_TYPE":"U","NORAD_CAT_ID":60485,"ELEMENT_SET_NO":999,"REV_AT_EPOCH":8686,"BSTAR":0.00027683033,"MEAN_MOTION_DOT":8.133e-5,"MEAN_MOTION_DDOT":0}]
